
STARLINK-1959           
1 47560U 21009N   24344.46517904  .00027708  00000+0  18713-2 0  9992
2 47560  53.0537 245.1906 0001358 104.0152 256.0988 15.06409098213077
STARLINK-1960           
1 47561U 21009P   24344.78496390  .00023586  00000+0  15969-2 0  9993
2 47561  53.0549 263.7634 0001532  87.2994 272.8170 15.06402112212848
STARLINK-1961           
1 47562U 21009Q   24344.58334491  .00214869  00000+0  19856-2 0  9990
2 47562  53.0480 254.7218 0004430 148.1815 125.9867 15.66361320  5831
STARLINK-1962           
1 47563U 21009R   24344.49007919  .00032583  00000+0  21959-2 0  9991
2 47563  53.0542 265.0904 0001529 113.2390 246.8760 15.06405244212186
STARLINK-1963           
1 47564U 21009S   24344.49100929  .00031007  00000+0  20913-2 0  9996
2 47564  53.0530 255.0834 0001692  71.5244 288.5929 15.06400660212323
STARLINK-1964           
1 47565U 21009T   24344.48731425  .00030499  00000+0  20567-2 0  9996
2 47565  53.0530 255.0996 0001432 103.3907 256.7242 15.06416165212327
STARLINK-1965           
1 47566U 21009U   24344.01643899  .00025275  00000+0  17103-2 0  9991
2 47566  53.0537 247.2147 0001258  99.7882 260.3249 15.06385312212396
STARLINK-1966           
1 47567U 21009V   24344.25723994  .00068517  00000+0  35035-2 0  9993
2 47567  53.0529 284.7918 0008059  90.0305 270.1612 15.16016710211880
STARLINK-1967           
1 47568U 21009W   24344.54351881  .00018893  00000+0  12838-2 0  9996
2 47568  53.0558 284.8497 0001779 122.0067 238.1095 15.06401682211917
STARLINK-1970           
1 47571U 21009Z   24344.44313947  .00096928  00000+0  38862-2 0  9990
2 47571  53.0486 250.7237 0001696 110.8283 249.2895 15.24222623212387
STARLINK-1971           
1 47572U 21009AA  24344.46151978  .00014496  00000+0  98983-3 0  9998
2 47572  53.0537 255.2182 0001709  93.2882 266.8302 15.06409624212328
STARLINK-1975           
1 47573U 21009AB  24344.17401837  .00030062  00000+0  20293-2 0  9994
2 47573  53.0532 256.5053 0001849  83.9929 276.1270 15.06384127212270
STARLINK-1976           
1 47574U 21009AC  24344.91667824  .00090725  00000+0  26431-2 0  9999
2 47574  53.0576 279.4661 0002222 105.9385 347.4351 15.34645229212620
STARLINK-1977           
1 47575U 21009AD  24344.91667824  .00196256  00000+0  44376-2 0  9994
2 47575  53.0572 275.8356 0001081 116.4762  93.7048 15.41935882212669
STARLINK-1978           
1 47576U 21009AE  24344.01275571  .00024494  00000+0  16581-2 0  9991
2 47576  53.0532 247.2304 0001519 105.9141 254.2016 15.06387969212399
STARLINK-1979           
1 47577U 21009AF  24344.18644956  .00033105  00000+0  22319-2 0  9992
2 47577  53.0531 261.4494 0001592 103.4070 256.7096 15.06384265212214
STARLINK-1980           
1 47578U 21009AG  24344.58334491  .00286555  00000+0  76908-2 0  9999
2 47578  53.0606 257.4454 0001143 115.9394  25.1888 15.36306644  5831
STARLINK-1981           
1 47579U 21009AH  24344.91667824  .00688829  00000+0  12940-1 0  9991
2 47579  53.0486 249.1876 0001142 108.7783 260.4927 15.45868229213049
STARLINK-1982           
1 47580U 21009AJ  24344.51589311  .00034218  00000+0  23047-2 0  9991
2 47580  53.0528 264.9696 0001567  74.3511 285.7651 15.06403734212182
STARLINK-1986           
1 47582U 21009AL  24344.48270854  .00022287  00000+0  15110-2 0  9993
2 47582  53.0538 265.1209 0001419  72.9004 287.2141 15.06384007212187
STARLINK-1987           
1 47583U 21009AM  24344.91667824  .00321466  00000+0  57339-2 0  9999
2 47583  53.0533 254.8051 0001136 108.1336 173.0208 15.48391513212978
STARLINK-1989           
1 47585U 21009AP  24344.78131399  .00058606  00000+0  12076-2 0  9991
2 47585  53.0555 258.4743 0001348 116.0930 244.0215 15.45371623212902
STARLINK-1990           
1 47586U 21009AQ  24344.91667824  .00283946  00000+0  88608-2 0  9995
2 47586  53.0481 280.1767 0001073 103.1498 260.4495 15.31544489212617
STARLINK-1991           
1 47587U 21009AR  24344.46520439  .00029136  00000+0  19673-2 0  9991
2 47587  53.0536 255.1980 0001510  74.8625 285.2531 15.06390586212323
STARLINK-1993           
1 47588U 21009AS  24344.52326243  .00034433  00000+0  23192-2 0  9993
2 47588  53.0531 264.9366 0001588  76.7643 283.3523 15.06400905212193
STARLINK-1994           
1 47589U 21009AT  24344.80705907  .00019693  00000+0  13372-2 0  9993
2 47589  53.0552 263.6616 0002587 109.8974 250.2294 15.06401682212849
STARLINK-1995           
1 47590U 21009AU  24344.26707420  .00024949  00000+0  16885-2 0  9999
2 47590  53.0545 286.0885 0001224 104.9195 255.1930 15.06386880211873
STARLINK-1996           
1 47591U 21009AV  24344.91667824  .00200632  00000+0  19949-2 0  9994
2 47591  53.0545 256.5669 0001218 144.5169 237.2202 15.64580115212932
STARLINK-1997           
1 47592U 21009AW  24344.56932545  .00031919  00000+0  21524-2 0  9993
2 47592  53.0538 284.7327 0001369  87.8930 272.2216 15.06394316211914
STARLINK-1998           
1 47593U 21009AX  24344.91667824  .00660923  00000+0  44406-2 0  9995
2 47593  53.0519 272.5658 0000950 114.1267 125.5539 15.72725048212729
STARLINK-1999           
1 47594U 21009AY  24344.77623235  .00901142  41652-3  14564-2 0  9993
2 47594  53.0384 257.3453 0006749 168.6764 191.4419 16.02897536212918
STARLINK-2000           
1 47595U 21009AZ  24344.91667824  .00308210  00000+0  64837-2 0  9995
2 47595  53.0541 276.3745 0001272  96.4854 287.0838 15.43627771212668
STARLINK-2001           
1 47596U 21009BA  24344.56195138  .00031440  00000+0  21197-2 0  9991
2 47596  53.0542 284.7662 0001618 106.5297 253.5870 15.06408163211911
STARLINK-2002           
1 47597U 21009BB  24344.58334491  .00292253  00000+0  88436-2 0  9991
2 47597  53.0486 281.4383 0001014 100.9620 273.9802 15.32493685  5858
STARLINK-2003           
1 47598U 21009BC  24344.58334491  .00524995  00000+0  13824-1 0  9991
2 47598  53.0555 251.1860 0001049 116.3031 337.3118 15.35881151  5841
STARLINK-2005           
1 47600U 21009BE  24344.58334491  .00417193  00000+0  10899-1 0  9995
2 47600  53.0402 237.1124 0001100 115.7717 162.6876 15.36587302  5892
STARLINK-2006           
1 47601U 21009BF  24344.58334491  .00442042  00000+0  11348-1 0  9997
2 47601  53.0548 240.5374 0001125 118.2281 341.5501 15.37026290  5854
STARLINK-2007           
1 47602U 21009BG  24344.83334491  .00094604  00000+0  27187-2 0  9992
2 47602  53.0487 237.1793 0005555 102.3363 329.6241 15.35042903213216
STARLINK-2008           
1 47603U 21009BH  24344.58334491  .00213357  00000+0  51815-2 0  9998
2 47603  53.0517 278.3024 0000986 114.5376 229.8177 15.39702434  5884
STARLINK-2021           
1 47604U 21009BJ  24344.45414610  .00026592  00000+0  17983-2 0  9998
2 47604  53.0536 255.2488 0001331  92.5752 267.5390 15.06381414212322
STARLINK-2024           
1 47606U 21009BL  24344.19243941  .00010766  00000+0  74054-3 0  9997
2 47606  53.0537 256.4246 0001438 106.9587 253.1560 15.06400717212894
STARLINK-2025           
1 47607U 21009BM  24344.58334491  .00744794  00000+0  16172-1 0  9992
2 47607  53.0533 245.9389 0001023 109.2405 175.2051 15.41367413  5676
TJS-6                   
1 47613U 21010A   24344.77097057  .00000059  00000+0  00000+0 0  9996
2 47613   0.0088 224.8797 0003483  29.9244 280.2480  1.00272886 14245
STARLINK-1528           
1 47620U 21012A   24344.83334491  .00984746  00000+0  10170-1 0  9994
2 47620  53.0556 308.1465 0001146 118.6258  28.0445 15.61923900210984
STARLINK-1609           
1 47621U 21012B   24344.31222596  .00025092  00000+0  16983-2 0  9999
2 47621  53.0543 315.8876 0001640  74.4185 285.6985 15.06381067211352
STARLINK-1645           
1 47622U 21012C   24344.63933391  .00007868  00000+0  54659-3 0  9991
2 47622  53.0550 314.4102 0001863  92.1108 268.0094 15.06395514210882
STARLINK-1655           
1 47623U 21012D   24344.45276648  .00028454  00000+0  19216-2 0  9990
2 47623  53.0534 250.2557 0001380  77.3233 282.7910 15.06396393212286
STARLINK-1669           
1 47624U 21012E   24344.57946141  .00027945  00000+0  18877-2 0  9992
2 47624  53.0546 294.6879 0001245  82.0345 278.0785 15.06396777211683
STARLINK-1704           
1 47625U 21012F   24344.24862056  .00004224  00000+0  30233-3 0  9995
2 47625  53.0548 316.1640 0001399  90.8226 269.2923 15.06398820211336
STARLINK-1761           
1 47626U 21012G   24344.30116714  .00024840  00000+0  16814-2 0  9990
2 47626  53.0545 315.9372 0001296  79.4190 280.6945 15.06382233211345
STARLINK-1972           
1 47627U 21012H   24344.64349968 -.00004510  00000+0 -28407-3 0  9993
2 47627  53.0529 219.3952 0001629  85.8761 274.2414 15.06394654212200
STARLINK-1973           
1 47628U 21012J   24344.33709212  .00024197  00000+0  16378-2 0  9996
2 47628  53.0550 315.7672 0001684  84.3493 275.7688 15.06398462211357
STARLINK-1974           
1 47629U 21012K   24344.85037637  .00001082  00000+0  91560-4 0  9995
2 47629  53.0528 193.4691 0001630  85.6797 274.4378 15.06399637212591
STARLINK-1983           
1 47630U 21012L   24344.60895855  .00014384  00000+0  98247-3 0  9991
2 47630  53.0557 294.6405 0001618 106.7348 253.3818 15.06404080211150
STARLINK-1992           
1 47632U 21012N   24344.66836046 -.00001165  00000+0 -59377-4 0  9993
2 47632  53.0552 219.2877 0001246  92.1355 267.9777 15.06389479212213
STARLINK-2009           
1 47633U 21012P   24344.63564528  .00141209  00000+0  46779-2 0  9996
2 47633  53.0442 309.0096 0001475 110.7482 249.3676 15.30280906210969
STARLINK-2010           
1 47634U 21012Q   24344.19797299  .00023307  00000+0  15783-2 0  9990
2 47634  53.0547 316.3991 0001543  80.6459 279.4704 15.06402780211322
STARLINK-2012           
1 47635U 21012R   24344.83334491  .01095974  00000+0  15899-1 0  9990
2 47635  53.0479 213.9202 0001045 100.4511 172.7129 15.52921075212300
